GSAT0101 (PRN E11)      
1 37846U 11060A   22145.37477095 -.00000106  00000+0  00000+0 0  9998
2 37846  56.9879  21.9625 0004086  30.8176 329.2481  1.70475105 65822
GSAT0102 (PRN E12)      
1 37847U 11060B   22145.61074868 -.00000106  00000+0  00000+0 0  9997
2 37847  56.9889  21.9558 0004070   0.4169 191.1016  1.70475415 65832
GSAT0103 (PRN E19)      
1 38857U 12055A   22146.58762691  .00000068  00000+0  00000+0 0  9995
2 38857  55.1323 142.2994 0005527 269.8354  90.1082  1.70473720 59734
GSAT0104 (PRN E20)      
1 38858U 12055B   22146.55778603  .00000068  00000+0  00000+0 0  9993
2 38858  55.1327 142.3015 0003103 270.9887  88.9829  1.70473997 59736
GSAT0201 (PRN E18)      
1 40128U 14050A   22145.57145527 -.00000108  00000+0  00000+0 0  9993
2 40128  50.2988 333.1926 1628904 123.1987 253.5114  1.85518868 50799
GSAT0202 (PRN E14)      
1 40129U 14050B   22146.37152972 -.00000112  00000+0  00000+0 0  9990
2 40129  50.3238 332.2206 1625956 124.0358 252.5084  1.85519535 52975
GSAT0203 (PRN E26)      
1 40544U 15017A   22143.98236526 -.00000106  00000+0  00000+0 0  9990
2 40544  56.7828  22.0370 0001529 289.8592  70.1636  1.70475693 43887
GSAT0204 (PRN E22)      
1 40545U 15017B   22145.40825498 -.00000107  00000+0  00000+0 0  9993
2 40545  56.7891  22.0104 0000449 228.5053 131.5323  1.70475594  6957
GSAT0205 (PRN E24)      
1 40889U 15045A   22147.52161111 -.00000048  00000+0  00000+0 0  9999
2 40889  55.6374 262.5416 0003988  23.2070 336.7961  1.70473979 41758
GSAT0206 (PRN E30)      
1 40890U 15045B   22145.39604465 -.00000055  00000+0  00000+0 0  9996
2 40890  55.6376 262.5960 0002206  13.9020 346.0865  1.70473955 41749
GSAT0209 (PRN E09)      
1 41174U 15079A   22146.15716771  .00000070  00000+0  00000+0 0  9994
2 41174  55.1486 142.0144 0005580 303.0288  56.9252  1.70474512 39491
GSAT0208 (PRN E08)      
1 41175U 15079B   22144.61687462  .00000073  00000+0  00000+0 0  9991
2 41175  55.1464 142.0553 0004856 301.5715  58.3907  1.70474503 39881
GSAT0211 (PRN E02)      
1 41549U 16030A   22145.90957009 -.00000054  00000+0  00000+0 0  9994
2 41549  55.7825 262.5125 0002843 330.7436  29.2226  1.70475460 37381
GSAT0210 (PRN E01)      
1 41550U 16030B   22146.20220892 -.00000054  00000+0  00000+0 0  9993
2 41550  55.7825 262.5059 0002232 283.2402  76.7171  1.70475574 37388
GSAT0207 (PRN E07)      
1 41859U 16069A   22144.10374453  .00000072  00000+0  00000+0 0  9996
2 41859  54.8083 142.2581 0005812 292.1477  67.8001  1.70473139 34080
GSAT0212 (PRN E03)      
1 41860U 16069B   22145.13031996  .00000072  00000+0  00000+0 0  9994
2 41860  54.8061 142.2270 0004319 308.3843  51.5868  1.70473157 34352
GSAT0213 (PRN E04)      
1 41861U 16069C   22146.08234165  .00000069  00000+0  00000+0 0  9999
2 41861  54.8087 142.2060 0005555 275.5950  84.3500  1.70473276 34231
GSAT0214 (PRN E05)      
1 41862U 16069D   22146.22941258  .00000069  00000+0  00000+0 0  9994
2 41862  54.8069 142.1965 0004642 278.6748  81.2805  1.70473233 34361
GSAT0215 (PRN E21)      
1 43055U 17079A   22144.37377980 -.00000052  00000+0  00000+0 0  9994
2 43055  55.7593 262.3874 0001638 274.8696  85.0965  1.70474621 27672
GSAT0216 (PRN E25)      
1 43056U 17079B   22145.83917894 -.00000054  00000+0  00000+0 0  9993
2 43056  55.7587 262.3469 0003393 277.9973  81.9467  1.70474808 27712
GSAT0217 (PRN E27)      
1 43057U 17079C   22146.64599555 -.00000052  00000+0  00000+0 0  9992
2 43057  55.7561 262.3246 0002995 295.0912  64.8607  1.70474755 27716
GSAT0218 (PRN E31)      
1 43058U 17079D   22146.27943190 -.00000053  00000+0  00000+0 0  9991
2 43058  55.7567 262.3319 0003875 272.5569  87.3814  1.70474764 27709
GSAT0221 (PRN E15)      
1 43564U 18060A   22145.59143344 -.00000106  00000+0  00000+0 0  9990
2 43564  57.1659  21.8028 0002639 311.2818  48.7379  1.70475509 23878
GSAT0222 (PRN E33)      
1 43565U 18060B   22144.05153084 -.00000106  00000+0  00000+0 0  9993
2 43565  57.1672  21.8450 0002764 326.0952  33.9271  1.70475460 23890
GSAT0219 (PRN E36)      
1 43566U 18060C   22145.44526446 -.00000106  00000+0  00000+0 0  9994
2 43566  57.1681  21.8092 0002495 332.7287  27.3003  1.70475550 23899
GSAT0220 (PRN E13)      
1 43567U 18060D   22143.90560351 -.00000106  00000+0  00000+0 0  9997
2 43567  57.1675  21.8505 0002377 324.9638  35.0604  1.70475314 23851
GSAT0223                
1 49809U 21116A   22145.84363299 -.00000106  00000+0  00000+0 0  9995
2 49809  57.1608  21.6964 0001255 111.8566  87.5603  1.70475599  2893
GSAT0224                
1 49810U 21116B   22146.85285517 -.00000104  00000+0  00000+0 0  9993
2 49810  57.1614  21.6671 0001514  83.6648 127.6171  1.70475683  2937
